OBJECT_NAME,OBJECT_ID,EPOCH,MEAN_MOTION,ECCENTRICITY,INCLINATION,RA_OF_ASC_NODE,ARG_OF_PERICENTER,MEAN_ANOMALY,EPHEMERIS_TYPE,CLASSIFICATION_TYPE,NORAD_CAT_ID,ELEMENT_SET_NO,REV_AT_EPOCH,BSTAR,MEAN_MOTION_DOT,MEAN_MOTION_DDOT
INTELSAT 902 (IS-902),2001-039A,2026-06-16T12:46:38.154720,1.00272336,.00043435,6.1158,71.7912,10.1686,324.3974,0,U,26900,999,9068,0,-.289E-5,0
INTELSAT 904 (IS-904),2002-007A,2026-06-16T11:09:19.400832,1.00270643,.00064729,6.9187,69.1930,4.8255,326.5523,0,U,27380,999,5175,0,-.232E-5,0
DIRECTV 5 (TEMPO 1),2002-023A,2026-06-16T11:54:38.688768,1.00271597,.00032849,4.8765,75.3186,24.3354,233.6679,0,U,27426,999,8811,0,-.62E-6,0
INTELSAT 905 (IS-905),2002-027A,2026-06-16T11:48:38.889792,1.00271164,.00037693,6.7523,69.8089,20.4601,214.4340,0,U,27438,999,5135,0,.88E-6,0
GALAXY 3C (G-3C),2002-030A,2026-06-16T14:16:28.472736,1.00271003,.00015527,3.7306,77.9846,32.2131,273.9312,0,U,27445,999,4648,0,-.157E-5,0
INTELSAT 906 (IS-906),2002-041A,2026-06-16T04:12:21.902400,1.00272749,.00046067,5.8002,72.9349,6.1806,312.5671,0,U,27513,999,8701,0,.8E-7,0
GALAXY 13 (HORIZONS-1),2003-044A,2026-06-16T14:00:44.980416,1.00270750,.00022668,1.4177,83.8736,352.5204,248.6323,0,U,27954,999,4656,0,.13E-5,0
INTELSAT 10-02,2004-022A,2026-06-15T16:28:39.209088,1.00272857,.00002983,0.0116,317.0110,255.8494,297.2601,0,U,28358,999,8054,0,-.9E-7,0
DIRECTV 8,2005-019A,2026-06-16T14:09:36.630720,1.00271857,.00028433,0.0168,351.0626,101.8028,265.3381,0,U,28659,999,7706,0,-.1E-7,0
GALAXY 28 (G-28),2005-022A,2026-06-16T09:27:54.048384,1.00270725,.00028638,3.2965,78.9439,6.3526,294.2402,0,U,28702,999,5196,0,-.204E-5,0
GALAXY 16 (G-16),2006-023A,2026-06-16T14:15:21.080736,1.00280927,.00026281,0.0064,118.1857,336.7835,284.7289,0,U,29236,999,7296,0,-.13E-5,0
DIRECTV 9S,2006-043A,2026-06-16T14:14:43.640160,1.00270807,.00048695,2.4198,80.9082,12.4270,284.0125,0,U,29494,999,5137,0,-.117E-5,0
GALAXY 17 (G-17),2007-016B,2026-06-16T12:36:34.133184,1.00272031,.00045518,2.9709,79.9089,16.8842,272.1268,0,U,31307,999,6979,0,-.21E-5,0
INTELSAT 11 (IS-11),2007-044B,2026-06-16T13:37:30.088704,0.99051084,.00023188,3.5644,78.6765,90.7209,68.4046,0,U,32253,999,6844,0,-.256E-5,0
HORIZONS-2,2007-063B,2026-06-16T12:39:48.821760,1.00268618,.00037326,2.6009,80.6329,1.8971,298.4127,0,U,32388,999,6780,0,-.256E-5,0
DIRECTV 11,2008-013A,2026-06-16T11:46:38.506944,1.00272758,.00004142,0.0097,257.2422,123.9435,321.0591,0,U,32729,999,4558,0,-.127E-5,0
GALAXY 18 (G-18),2008-024A,2026-06-16T14:08:29.238720,1.00272192,.00027072,0.0166,19.2810,66.2587,268.4380,0,U,32951,999,4584,0,.23E-6,0
INTELSAT 25 (IS-25),2008-034A,2026-06-16T14:22:54.946848,0.99035053,.00032766,2.7088,80.3790,60.4004,104.0870,0,U,33153,999,6568,0,-.234E-5,0
GALAXY 19 (G-19),2008-045A,2026-06-16T14:15:51.033024,1.00271205,.00024259,0.0377,264.3098,184.3605,293.1588,0,U,33376,999,6489,0,-.141E-5,0
FM-5,2009-034A,2026-06-16T12:36:19.156608,1.00269209,.00009255,0.0218,291.7689,12.8317,63.1176,0,U,35493,999,4663,0,-.202E-5,0
INTELSAT 14 (IS-14),2009-064A,2026-06-16T11:05:19.784256,1.00270268,.00021779,0.0189,298.2043,140.3082,307.5568,0,U,36097,999,6059,0,-.275E-5,0
INTELSAT 15 (IS-15),2009-067A,2026-06-16T11:42:31.217184,1.00270396,.00020285,0.0137,308.7498,139.6672,77.1128,0,U,36106,999,4122,0,-.186E-5,0
DIRECTV 12,2009-075A,2026-06-16T14:14:13.687872,1.00272950,.00004114,0.0102,111.7598,292.3643,331.5752,0,U,36131,999,4654,0,-.106E-5,0
INTELSAT 16 (IS-16),2010-006A,2026-06-16T12:39:11.382048,1.00269164,.00019403,0.0158,311.4266,154.3895,272.5641,0,U,36397,999,5964,0,-.246E-5,0
XM-5,2010-053A,2026-06-15T00:23:38.718240,1.00271028,.00028901,0.0647,273.1886,289.1857,311.6507,0,U,37185,999,5746,0,-.18E-6,0
INTELSAT 17 (IS-17),2010-065B,2026-06-16T13:19:42.482784,1.00271572,.00025842,0.0065,294.5866,160.1755,75.9814,0,U,37238,999,5324,0,-.3E-7,0
INTELSAT 28 (IS-28),2011-016A,2026-06-16T10:38:42.359712,1.00269787,.00036005,1.8048,82.6291,6.7859,303.2550,0,U,37392,999,5327,0,-.228E-5,0
INTELSAT 18 (IS-18),2011-056A,2026-06-16T05:18:54.418752,1.00271347,.00015508,0.0151,317.1328,125.8808,81.2040,0,U,37834,999,5380,0,.52E-6,0
INTELSAT 22 (IS-22),2012-011A,2026-06-16T13:21:27.315360,1.00272410,.00015823,0.0154,99.0890,2.3017,75.8859,0,U,38098,999,718,0,-.6E-6,0
INTELSAT 19 (IS-19),2012-030A,2026-06-16T13:11:38.722272,1.00271008,.00028369,0.0157,2.0137,91.9084,174.7998,0,U,38356,999,5044,0,-.58E-6,0
INTELSAT 20 (IS-20),2012-043A,2026-06-16T13:20:27.410784,1.00270557,.0001738,0.0080,87.9788,89.7250,355.7421,0,U,38740,999,5074,0,-.26E-6,0
